OBJECT_NAME,OBJECT_ID,EPOCH,MEAN_MOTION,ECCENTRICITY,INCLINATION,RA_OF_ASC_NODE,ARG_OF_PERICENTER,MEAN_ANOMALY,EPHEMERIS_TYPE,CLASSIFICATION_TYPE,NORAD_CAT_ID,ELEMENT_SET_NO,REV_AT_EPOCH,BSTAR,MEAN_MOTION_DOT,MEAN_MOTION_DDOT
STARLINK-34854,2025-189Q,2026-06-23T23:13:21.037440,15.31701846,.00014791,53.1593,72.7261,41.5724,318.5390,0,U,65337,999,4732,-.577794E-5,-.545E-5,0
STARLINK-34751,2025-189R,2026-06-24T23:56:33.134208,15.31725464,.0001193,53.1576,67.7741,99.7179,260.3958,0,U,65338,999,4754,.10575E-2,.32621E-3,0
STARLINK-34777,2025-189S,2026-06-24T22:29:17.458368,15.31752389,.0000906,53.1568,68.1082,139.3928,220.7141,0,U,65339,999,4754,.12193E-2,.37724E-3,0
STARLINK-35020,2025-189T,2026-06-24T23:09:01.491840,15.31722071,.0001384,53.1606,67.5685,101.0777,259.0380,0,U,65340,999,4749,.84799E-3,.26059E-3,0
STARLINK-35016,2025-189U,2026-06-24T00:12:01.243872,15.30205808,.00009294,53.1570,72.9693,86.0624,274.0483,0,U,65341,999,4733,.88581328E-3,.25973E-3,0
STARLINK-35092,2025-189V,2026-06-24T23:15:45.188928,15.31739401,.0001145,53.1578,67.6031,63.0718,297.0401,0,U,65342,999,4745,.13036E-2,.40356E-3,0
STARLINK-34838,2025-189W,2026-06-25T01:47:58.659072,15.33580344,.0000711,53.1592,68.2486,86.8646,273.2437,0,U,65343,999,4755,.13193E-2,.43311E-3,0
STARLINK-35088,2025-189X,2026-06-25T00:08:38.842368,15.30221295,.0001392,53.1585,68.5331,87.9385,272.1775,0,U,65344,999,4754,.10717E-2,.31538E-3,0
STARLINK-34831,2025-189Y,2026-06-25T00:09:59.685120,15.31725485,.0001061,53.1577,67.8285,90.2148,269.8975,0,U,65345,999,4755,.7034E-3,.21543E-3,0
STARLINK-34873,2025-189Z,2026-06-25T00:25:12.124416,15.30211309,.0001366,53.1599,67.8948,95.2623,264.8534,0,U,65346,999,4755,.73991E-3,.21626E-3,0
STARLINK-34881,2025-189AA,2026-06-24T22:22:06.697344,15.31723656,.0000562,53.1582,68.0771,66.4247,293.6814,0,U,65347,999,4753,.94871E-3,.29212E-3,0
STARLINK-34859,2025-189AB,2026-06-24T23:54:58.367232,15.30225380,.000101,53.1571,68.4752,84.3570,275.7546,0,U,65348,999,4753,.10055E-2,.29564E-3,0
STARLINK-34895,2025-189AC,2026-06-24T23:42:37.967616,15.31721786,.0001074,53.1571,67.7146,82.9977,277.1147,0,U,65349,999,4750,.86322E-3,.26535E-3,0
STARLINK-34892,2025-189AD,2026-06-24T23:22:27.254784,15.31755928,.0001009,53.1595,67.6268,95.8232,264.2884,0,U,65350,999,4749,.12919E-2,.40009E-3,0
STARLINK-34244,2025-190A,2026-06-23T21:23:50.512704,15.34402557,.00005523,53.1598,33.6022,309.4045,50.6909,0,U,65351,999,4603,.761304E-3,.25435E-3,0
STARLINK-34716,2025-190B,2026-06-24T23:49:28.294176,15.30211848,.000102,53.1600,29.7794,96.1760,263.9357,0,U,65352,999,4618,.95239E-3,.27964E-3,0
STARLINK-34828,2025-190C,2026-06-25T00:45:31.726944,15.30231750,.0001072,53.1525,29.3095,115.1650,244.9462,0,U,65353,999,4619,.13893E-2,.41057E-3,0
STARLINK-34785,2025-190D,2026-06-24T23:16:04.539072,15.34415454,.0001228,53.1586,28.9308,90.6876,269.4267,0,U,65354,999,4572,.10653E-2,.35805E-3,0
STARLINK-34823,2025-190E,2026-06-24T23:35:47.656608,15.30219213,.0001339,53.1590,29.7194,89.0834,271.0321,0,U,65355,999,4618,.74472E-3,.21775E-3,0
STARLINK-34680,2025-190F,2026-06-23T21:51:35.967744,15.30207292,.00010968,53.1599,35.1101,94.3373,265.7753,0,U,65356,999,4554,.93632646E-3,.27481E-3,0
STARLINK-34860,2025-190G,2026-06-24T23:40:18.681312,15.34419250,.0001266,53.1582,29.0351,98.8392,261.2754,0,U,65357,999,4572,.10025E-2,.33668E-3,0
STARLINK-34782,2025-190H,2026-06-24T21:29:50.616672,15.30185793,.0002209,53.1582,29.8827,79.0012,281.1238,0,U,65358,999,4617,.70308E-3,.20513E-3,0
STARLINK-34760,2025-190J,2026-06-24T23:20:35.854944,15.30235893,.0000906,53.1564,29.6513,104.2272,255.8829,0,U,65359,999,4571,.1311E-2,.38716E-3,0
STARLINK-34826,2025-190K,2026-06-23T21:42:01.107936,15.34408233,.00009038,53.1592,33.6558,71.8949,288.2152,0,U,65360,999,4556,.92922905E-3,.31158E-3,0
STARLINK-34800,2025-190L,2026-06-23T14:07:15.340800,15.30223925,.00013426,53.1581,35.9413,92.4260,267.6894,0,U,65361,999,4550,.43087546E-3,.12433E-3,0
STARLINK-34817,2025-190M,2026-06-23T21:26:51.864576,15.34403996,.00012673,53.1584,33.5872,75.1948,284.9195,0,U,65362,999,4603,.88168008E-3,.29534E-3,0
STARLINK-34797,2025-190N,2026-06-24T23:31:13.689984,15.34415038,.0002417,53.1545,28.9930,90.1155,270.0124,0,U,65363,999,4619,.7664E-3,.2562E-3,0
STARLINK-34729,2025-190P,2026-06-23T21:01:27.098112,15.30212632,.0001981,53.1594,34.8938,88.2845,271.8383,0,U,65364,999,4643,.6917401E-3,.20192E-3,0
STARLINK-34710,2025-190Q,2026-06-25T02:06:04.110048,15.30224105,.0001136,53.1587,29.6585,76.8614,283.2513,0,U,65365,999,4572,.93534E-3,.27466E-3,0
STARLINK-34943,2025-190R,2026-06-24T23:34:15.047040,15.34415378,.0001334,53.1568,29.0044,103.5801,256.5350,0,U,65366,999,4572,.76646E-3,.25621E-3,0
