STARLINK-34854          
1 65337U 25189Q   26174.96760460 -.00000545  00000+0 -57779-5 0  9992
2 65337  53.1593  72.7261 0001479  41.5724 318.5390 15.31701846 47322
STARLINK-34751          
1 65338U 25189R   26175.99760572  .00032621  00000+0  10575-2 0  9999
2 65338  53.1576  67.7741 0001193  99.7179 260.3958 15.31725464 47543
STARLINK-34777          
1 65339U 25189S   26175.93700762  .00037724  00000+0  12193-2 0  9996
2 65339  53.1568  68.1082 0000906 139.3928 220.7141 15.31752389 47542
STARLINK-35020          
1 65340U 25189T   26175.96460060  .00026059  00000+0  84799-3 0  9996
2 65340  53.1606  67.5685 0001384 101.0777 259.0380 15.31722071 47497
STARLINK-35016          
1 65341U 25189U   26175.00834773  .00025973  00000+0  88581-3 0  9995
2 65341  53.1570  72.9693 0000929  86.0624 274.0483 15.30205808 47331
STARLINK-35092          
1 65342U 25189V   26175.96927302  .00040356  00000+0  13036-2 0  9996
2 65342  53.1578  67.6031 0001145  63.0718 297.0401 15.31739401 47457
STARLINK-34838          
1 65343U 25189W   26176.07498448  .00043311  00000+0  13193-2 0  9992
2 65343  53.1592  68.2486 0000711  86.8646 273.2437 15.33580344 47554
STARLINK-35088          
1 65344U 25189X   26176.00600512  .00031538  00000+0  10717-2 0  9990
2 65344  53.1585  68.5331 0001392  87.9385 272.1775 15.30221295 47543
STARLINK-34831          
1 65345U 25189Y   26176.00694080  .00021543  00000+0  70340-3 0  9998
2 65345  53.1577  67.8285 0001061  90.2148 269.8975 15.31725485 47559
STARLINK-34873          
1 65346U 25189Z   26176.01750144  .00021626  00000+0  73991-3 0  9991
2 65346  53.1599  67.8948 0001366  95.2623 264.8534 15.30211309 47551
STARLINK-34881          
1 65347U 25189AA  26175.93202196  .00029212  00000+0  94871-3 0  9990
2 65347  53.1582  68.0771 0000562  66.4247 293.6814 15.31723656 47533
STARLINK-34859          
1 65348U 25189AB  26175.99650888  .00029564  00000+0  10055-2 0  9993
2 65348  53.1571  68.4752 0001010  84.3570 275.7546 15.30225380 47535
STARLINK-34895          
1 65349U 25189AC  26175.98793944  .00026535  00000+0  86322-3 0  9990
2 65349  53.1571  67.7146 0001074  82.9977 277.1147 15.31721786 47502
STARLINK-34892          
1 65350U 25189AD  26175.97392656  .00040009  00000+0  12919-2 0  9998
2 65350  53.1595  67.6268 0001009  95.8232 264.2884 15.31755928 47497
STARLINK-34244          
1 65351U 25190A   26174.89155686  .00025435  00000+0  76130-3 0  9993
2 65351  53.1598  33.6022 0000552 309.4045  50.6909 15.34402557 46034
STARLINK-34716          
1 65352U 25190B   26175.99268859  .00027964  00000+0  95239-3 0  9993
2 65352  53.1600  29.7794 0001020  96.1760 263.9357 15.30211848 46185
STARLINK-34828          
1 65353U 25190C   26176.03161721  .00041057  00000+0  13893-2 0  9994
2 65353  53.1525  29.3095 0001072 115.1650 244.9462 15.30231750 46190
STARLINK-34785          
1 65354U 25190D   26175.96949698  .00035805  00000+0  10653-2 0  9998
2 65354  53.1586  28.9308 0001228  90.6876 269.4267 15.34415454 45722
STARLINK-34823          
1 65355U 25190E   26175.98319047  .00021775  00000+0  74472-3 0  9991
2 65355  53.1590  29.7194 0001339  89.0834 271.0321 15.30219213 46181
STARLINK-34680          
1 65356U 25190F   26174.91083296  .00027481  00000+0  93633-3 0  9998
2 65356  53.1599  35.1101 0001096  94.3373 265.7753 15.30207292 45549
STARLINK-34860          
1 65357U 25190G   26175.98632733  .00033668  00000+0  10025-2 0  9990
2 65357  53.1582  29.0351 0001266  98.8392 261.2754 15.34419250 45725
STARLINK-34782          
1 65358U 25190H   26175.89572473  .00020513  00000+0  70308-3 0  9991
2 65358  53.1582  29.8827 0002209  79.0012 281.1238 15.30185793 46176
STARLINK-34760          
1 65359U 25190J   26175.97263721  .00038716  00000+0  13110-2 0  9995
2 65359  53.1564  29.6513 0000906 104.2272 255.8829 15.30235893 45718
STARLINK-34826          
1 65360U 25190K   26174.90417949  .00031158  00000+0  92923-3 0  9995
2 65360  53.1592  33.6558 0000903  71.8949 288.2152 15.34408233 45568
STARLINK-34800          
1 65361U 25190L   26174.58837200  .00012433  00000+0  43088-3 0  9999
2 65361  53.1581  35.9413 0001342  92.4260 267.6894 15.30223925 45502
STARLINK-34817          
1 65362U 25190M   26174.89365584  .00029534  00000+0  88168-3 0  9993
2 65362  53.1584  33.5872 0001267  75.1948 284.9195 15.34403996 46033
STARLINK-34797          
1 65363U 25190N   26175.98001956  .00025620  00000+0  76640-3 0  9999
2 65363  53.1545  28.9930 0002417  90.1155 270.0124 15.34415038 46194
STARLINK-34729          
1 65364U 25190P   26174.87600808  .00020192  00000+0  69174-3 0  9991
2 65364  53.1594  34.8938 0001981  88.2845 271.8383 15.30212632 46436
STARLINK-34710          
1 65365U 25190Q   26176.08754757  .00027466  00000+0  93534-3 0  9998
2 65365  53.1587  29.6585 0001136  76.8614 283.2513 15.30224105 45729
STARLINK-34943          
1 65366U 25190R   26175.98211860  .00025621  00000+0  76646-3 0  9996
2 65366  53.1568  29.0044 0001334 103.5801 256.5350 15.34415378 45729
